{"type": "FeatureCollection", "features": [ {"type": "Feature", "properties": {"norad_id": 39620, "name": "COSMOS 2492 (754)", "group": "gnss", "lat": 14.093065555001777, "lon": -32.778401992586474, "alt_km": 19113.069691651912, "timestamp": "2025-12-02T06:27:53.256478+00:00", "meta": {"OBJECT_NAME": "COSMOS 2492 (754)", "OBJECT_ID": "2014-012A", "EPOCH": "2025-12-01T18:43:02.781120", "MEAN_MOTION": 2.13103085, "ECCENTRICITY": 0.0014159, "INCLINATION": 65.4139, "RA_OF_ASC_NODE": 320.6426, "ARG_OF_PERICENTER": 310.873, "MEAN_ANOMALY": 49.0143, "EPHEMERIS_TYPE": 0, "CLASSIFICATION_TYPE": "U", "NORAD_CAT_ID": 39620, "ELEMENT_SET_NO": 999, "REV_AT_EPOCH": 9103, "BSTAR": 0, "MEAN_MOTION_DOT": -2.9e-07, "MEAN_MOTION_DDOT": 0}, "tle": {"line1": "1 39620U 14012A   25335.77989330 -.00000029  00000+0  00000+0 0  9992", "line2": "2 39620  65.4139 320.6426 0014159 310.8730  49.0143  2.13103085 91032"}}, "geometry": {"type": "Point", "coordinates": [-32.778401992586474, 14.093065555001777]}}, {"type": "Feature", "properties": {"norad_id": 39635, "name": "IRNSS-1B", "group": "gnss", "lat": -9.693691593692877, "lon": -134.25656333667627, "alt_km": 35854.856830636854, "timestamp": "2025-12-02T06:27:53.256489+00:00", "meta": {"OBJECT_NAME": "IRNSS-1B", "OBJECT_ID": "2014-017A", "EPOCH": "2025-11-28T20:06:06.175008", "MEAN_MOTION": 1.00274122, "ECCENTRICITY": 0.00176916, "INCLINATION": 28.849, "RA_OF_ASC_NODE": 243.8302, "ARG_OF_PERICENTER": 183.8746, "MEAN_ANOMALY": 356.8041, "EPHEMERIS_TYPE": 0, "CLASSIFICATION_TYPE": "U", "NORAD_CAT_ID": 39635, "ELEMENT_SET_NO": 999, "REV_AT_EPOCH": 4278, "BSTAR": 0, "MEAN_MOTION_DOT": 1.13e-06, "MEAN_MOTION_DDOT": 0}, "tle": {"line1": "1 39635U 14017A   25332.83757147  .00000113  00000+0  00000+0 0  9999", "line2": "2 39635  28.8490 243.8302 0017691 183.8746 356.8041  1.00274122 42789"}}, "geometry": {"type": "Point", "coordinates": [-134.25656333667627, -9.693691593692877]}}, {"type": "Feature", "properties": {"norad_id": 39727, "name": "LUCH 5V (SDCM/PRN 141)", "group": "gnss", "lat": -0.942171781533627, "lon": -96.94054469612021, "alt_km": 35767.53381689986, "timestamp": "2025-12-02T06:27:53.256502+00:00", "meta": {"OBJECT_NAME": "LUCH 5V (SDCM/PRN 141)", "OBJECT_ID": "2014-023A", "EPOCH": "2025-12-01T19:24:04.671360", "MEAN_MOTION": 1.00272515, "ECCENTRICITY": 0.0004401, "INCLINATION": 4.6396, "RA_OF_ASC_NODE": 71.6314, "ARG_OF_PERICENTER": 197.4977, "MEAN_ANOMALY": 187.5853, "EPHEMERIS_TYPE": 0, "CLASSIFICATION_TYPE": "U", "NORAD_CAT_ID": 39727, "ELEMENT_SET_NO": 999, "REV_AT_EPOCH": 4238, "BSTAR": 0, "MEAN_MOTION_DOT": -2.49e-06, "MEAN_MOTION_DDOT": 0}, "tle": {"line1": "1 39727U 14023A   25335.80838740 -.00000249  00000+0  00000+0 0  9998", "line2": "2 39727   4.6396  71.6314 0004401 197.4977 187.5853  1.00272515 42380"}}, "geometry": {"type": "Point", "coordinates": [-96.94054469612021, -0.942171781533627]}}, {"type": "Feature", "properties": {"norad_id": 39741, "name": "GPS BIIF-6  (PRN 06)", "group": "gnss", "lat": 2.516232955073546, "lon": 157.52359419310176, "alt_km": 20262.35548410696, "timestamp": "2025-12-02T06:27:53.256514+00:00", "meta": {"OBJECT_NAME": "GPS BIIF-6  (PRN 06)", "OBJECT_ID": "2014-026A", "EPOCH": "2025-12-01T00:37:56.787744", "MEAN_MOTION": 2.00562013, "ECCENTRICITY": 0.00388586, "INCLINATION": 56.588, "RA_OF_ASC_NODE": 339.2323, "ARG_OF_PERICENTER": 318.0747, "MEAN_ANOMALY": 41.6609, "EPHEMERIS_TYPE": 0, "CLASSIFICATION_TYPE": "U", "NORAD_CAT_ID": 39741, "ELEMENT_SET_NO": 999, "REV_AT_EPOCH": 8456, "BSTAR": 0, "MEAN_MOTION_DOT": -5.2e-07, "MEAN_MOTION_DDOT": 0}, "tle": {"line1": "1 39741U 14026A   25335.02635171 -.00000052  00000+0  00000+0 0  9996", "line2": "2 39741  56.5880 339.2323 0038858 318.0747  41.6609  2.00562013 84563"}}, "geometry": {"type": "Point", "coordinates": [157.52359419310176, 2.516232955073546]}}, {"type": "Feature", "properties": {"norad_id": 40001, "name": "COSMOS 2500 (755)", "group": "gnss", "lat": -54.287282642957805, "lon": -179.90935730138472, "alt_km": 19116.245370201883, "timestamp": "2025-12-02T06:27:53.256525+00:00", "meta": {"OBJECT_NAME": "COSMOS 2500 (755)", "OBJECT_ID": "2014-032A", "EPOCH": "2025-12-01T00:19:46.958016", "MEAN_MOTION": 2.13105898, "ECCENTRICITY": 0.00083447, "INCLINATION": 65.35, "RA_OF_ASC_NODE": 320.4317, "ARG_OF_PERICENTER": 219.0257, "MEAN_ANOMALY": 140.9269, "EPHEMERIS_TYPE": 0, "CLASSIFICATION_TYPE": "U", "NORAD_CAT_ID": 40001, "ELEMENT_SET_NO": 999, "REV_AT_EPOCH": 8923, "BSTAR": 0, "MEAN_MOTION_DOT": -2.5e-07, "MEAN_MOTION_DDOT": 0}, "tle": {"line1": "1 40001U 14032A   25335.01373794 -.00000025  00000+0  00000+0 0  9993", "line2": "2 40001  65.3500 320.4317 0008344 219.0257 140.9269  2.13105898 89231"}}, "geometry": {"type": "Point", "coordinates": [-179.90935730138472, -54.287282642957805]}}, {"type": "Feature", "properties": {"norad_id": 40105, "name": "GPS BIIF-7  (PRN 09)", "group": "gnss", "lat": 48.527794199942726, "lon": -135.47437691625893, "alt_km": 20088.59355611826, "timestamp": "2025-12-02T06:27:53.256536+00:00", "meta": {"OBJECT_NAME": "GPS BIIF-7  (PRN 09)", "OBJECT_ID": "2014-045A", "EPOCH": "2025-12-01T02:44:59.047584", "MEAN_MOTION": 2.00571745, "ECCENTRICITY": 0.0032948, "INCLINATION": 55.2216, "RA_OF_ASC_NODE": 96.3629, "ARG_OF_PERICENTER": 119.5842, "MEAN_ANOMALY": 240.7262, "EPHEMERIS_TYPE": 0, "CLASSIFICATION_TYPE": "U", "NORAD_CAT_ID": 40105, "ELEMENT_SET_NO": 999, "REV_AT_EPOCH": 8210, "BSTAR": 0, "MEAN_MOTION_DOT": 1.8e-07, "MEAN_MOTION_DDOT": 0}, "tle": {"line1": "1 40105U 14045A   25335.11457231  .00000018  00000+0  00000+0 0  9993", "line2": "2 40105  55.2216  96.3629 0032948 119.5842 240.7262  2.00571745 82109"}}, "geometry": {"type": "Point", "coordinates": [-135.47437691625893, 48.527794199942726]}}, {"type": "Feature", "properties": {"norad_id": 40128, "name": "GSAT0201 (GALILEO 5)", "group": "gnss", "lat": 43.447467613463246, "lon": -23.410261502627293, "alt_km": 22154.056270614354, "timestamp": "2025-12-02T06:27:53.256550+00:00", "meta": {"OBJECT_NAME": "GSAT0201 (GALILEO 5)", "OBJECT_ID": "2014-050A", "EPOCH": "2025-11-28T09:00:06.762528", "MEAN_MOTION": 1.85519533, "ECCENTRICITY": 0.16464881, "INCLINATION": 49.0938, "RA_OF_ASC_NODE": 281.6492, "ARG_OF_PERICENTER": 171.7362, "MEAN_ANOMALY": 191.3851, "EPHEMERIS_TYPE": 0, "CLASSIFICATION_TYPE": "U", "NORAD_CAT_ID": 40128, "ELEMENT_SET_NO": 999, "REV_AT_EPOCH": 7459, "BSTAR": 0, "MEAN_MOTION_DOT": -4.8e-07, "MEAN_MOTION_DDOT": 0}, "tle": {"line1": "1 40128U 14050A   25332.37507827 -.00000048  00000+0  00000+0 0  9990", "line2": "2 40128  49.0938 281.6492 1646488 171.7362 191.3851  1.85519533 74599"}}, "geometry": {"type": "Point", "coordinates": [-23.410261502627293, 43.447467613463246]}}, {"type": "Feature", "properties": {"norad_id": 40129, "name": "GSAT0202 (GALILEO 6)", "group": "gnss", "lat": -45.14367066554159, "lon": -139.90514333592904, "alt_km": 23112.754702768732, "timestamp": "2025-12-02T06:27:53.256562+00:00", "meta": {"OBJECT_NAME": "GSAT0202 (GALILEO 6)", "OBJECT_ID": "2014-050B", "EPOCH": "2025-11-29T17:01:27.924672", "MEAN_MOTION": 1.85520097, "ECCENTRICITY": 0.1647266, "INCLINATION": 49.1079, "RA_OF_ASC_NODE": 280.6784, "ARG_OF_PERICENTER": 172.5408, "MEAN_ANOMALY": 190.2825, "EPHEMERIS_TYPE": 0, "CLASSIFICATION_TYPE": "U", "NORAD_CAT_ID": 40129, "ELEMENT_SET_NO": 999, "REV_AT_EPOCH": 7678, "BSTAR": 0, "MEAN_MOTION_DOT": -5.4e-07, "MEAN_MOTION_DDOT": 0}, "tle": {"line1": "1 40129U 14050B   25333.70935098 -.00000054  00000+0  00000+0 0  9991", "line2": "2 40129  49.1079 280.6784 1647266 172.5408 190.2825  1.85520097 76784"}}, "geometry": {"type": "Point", "coordinates": [-139.90514333592904, -45.14367066554159]}}, {"type": "Feature", "properties": {"norad_id": 40269, "name": "IRNSS-1C", "group": "gnss", "lat": 2.170224856823059, "lon": -108.5071199933181, "alt_km": 35855.39511705957, "timestamp": "2025-12-02T06:27:53.256574+00:00", "meta": {"OBJECT_NAME": "IRNSS-1C", "OBJECT_ID": "2014-061A", "EPOCH": "2025-12-01T19:20:42.491904", "MEAN_MOTION": 1.00269475, "ECCENTRICITY": 0.0017868, "INCLINATION": 6.0131, "RA_OF_ASC_NODE": 92.8395, "ARG_OF_PERICENTER": 2.8735, "MEAN_ANOMALY": 348.3601, "EPHEMERIS_TYPE": 0, "CLASSIFICATION_TYPE": "U", "NORAD_CAT_ID": 40269, "ELEMENT_SET_NO": 999, "REV_AT_EPOCH": 4070, "BSTAR": 0, "MEAN_MOTION_DOT": -1.4e-06, "MEAN_MOTION_DDOT": 0}, "tle": {"line1": "1 40269U 14061A   25335.80604736 -.00000140  00000+0  00000+0 0  9999", "line2": "2 40269   6.0131  92.8395 0017868   2.8735 348.3601  1.00269475 40705"}}, "geometry": {"type": "Point", "coordinates": [-108.5071199933181, 2.170224856823059]}}, {"type": "Feature", "properties": {"norad_id": 40294, "name": "GPS BIIF-8  (PRN 03)", "group": "gnss", "lat": -19.60135130690893, "lon": -127.99157799108829, "alt_km": 20297.207466229218, "timestamp": "2025-12-02T06:27:53.256585+00:00", "meta": {"OBJECT_NAME": "GPS BIIF-8  (PRN 03)", "OBJECT_ID": "2014-068A", "EPOCH": "2025-11-30T11:50:19.709088", "MEAN_MOTION": 2.00564008, "ECCENTRICITY": 0.0060843, "INCLINATION": 56.8481, "RA_OF_ASC_NODE": 38.6199, "ARG_OF_PERICENTER": 69.4521, "MEAN_ANOMALY": 291.2475, "EPHEMERIS_TYPE": 0, "CLASSIFICATION_TYPE": "U", "NORAD_CAT_ID": 40294, "ELEMENT_SET_NO": 999, "REV_AT_EPOCH": 8122, "BSTAR": 0, "MEAN_MOTION_DOT": -6.3e-07, "MEAN_MOTION_DDOT": 0}, "tle": {"line1": "1 40294U 14068A   25334.49328367 -.00000063  00000+0  00000+0 0  9995", "line2": "2 40294  56.8481  38.6199 0060843  69.4521 291.2475  2.00564008 81225"}}, "geometry": {"type": "Point", "coordinates": [-127.99157799108829, -19.60135130690893]}}]}